[{"OBJECT_NAME":"STARLINK-31224","OBJECT_ID":"2024-038G","EPOCH":"2026-03-09T21:44:54.110976","MEAN_MOTION":15.27573382,"ECCENTRICITY":6.55e-5,"INCLINATION":43.0027,"RA_OF_ASC_NODE":25.5928,"ARG_OF_PERICENTER":264.7705,"MEAN_ANOMALY":95.3072,"EPHEMERIS_TYPE":0,"CLASSIFICATION_TYPE":"U","NORAD_CAT_ID":59029,"ELEMENT_SET_NO":999,"REV_AT_EPOCH":11479,"BSTAR":-1.0485071e-5,"MEAN_MOTION_DOT":-5.5e-6,"MEAN_MOTION_DDOT":0},{"OBJECT_NAME":"FLOCK 4G-8","OBJECT_ID":"2025-009E","EPOCH":"2026-03-09T17:22:17.546016","MEAN_MOTION":15.27623414,"ECCENTRICITY":0.00030503,"INCLINATION":97.4045,"RA_OF_ASC_NODE":151.2834,"ARG_OF_PERICENTER":315.2538,"MEAN_ANOMALY":44.8455,"EPHEMERIS_TYPE":0,"CLASSIFICATION_TYPE":"U","NORAD_CAT_ID":62613,"ELEMENT_SET_NO":999,"REV_AT_EPOCH":6372,"BSTAR":0.0005043806,"MEAN_MOTION_DOT":0.00013559,"MEAN_MOTION_DDOT":0}]
